NORAD_CAT_ID,OBJECT_NAME,OBJECT_TYPE,EPOCH,MEAN_MOTION,ECCENTRICITY,INCLINATION,RA_OF_ASC_NODE,ARG_OF_PERICENTER,MEAN_ANOMALY,BSTAR,MEAN_MOTION_DOT,MEAN_MOTION_DDOT,TLE_LINE0,TLE_LINE1,TLE_LINE2,SEMIMAJOR_AXIS,PERIOD,APOGEE,PERIGEE,DECAYED
53134.0,STARLINK-4150,PAYLOAD,2022-10-20 14:00:01,15.08830343,0.0002806,53.2158,323.2155,26.567,53.2381,0.002,0.00031678,0.0,0 STARLINK-4150,1 53134U 22083C   22293.58334491  .00031678  00000-0  20000-2 0  9995,2 53134  53.2158 323.2155 0002806  26.5670  53.2381 15.08830343  1306,6917.91,95.438,541.716,537.8340000000002,0.0
53134.0,STARLINK-4150,PAYLOAD,2022-10-20 22:00:00,15.08808822,0.0002516,53.2162,321.7172,28.4488,62.9504,0.0015890999999999,0.00025072,0.0,0 STARLINK-4150,1 53134U 22083C   22293.91667824  .00025072  00000-0  15891-2 0  9994,2 53134  53.2162 321.7172 0002516  28.4488  62.9504 15.08808822  1300,6917.976,95.44,541.581,538.1,0.0
53134.0,STARLINK-4150,PAYLOAD,2022-10-21 14:00:01,15.08829537,0.0002821,53.2157,318.7262,26.9406,87.6255,0.0021901,0.00034731,0.0,0 STARLINK-4150,1 53134U 22083C   22294.58334491  .00034731  00000-0  21901-2 0  9990,2 53134  53.2157 318.7262 0002821  26.9406  87.6255 15.08829537  1305,6917.9119999999975,95.438,541.729,537.826,0.0
53134.0,STARLINK-4150,PAYLOAD,2022-10-21 22:00:00,15.08830907,0.0002535,53.2157,317.2287,29.3857,96.7776,0.0020206,0.00032009,0.0,0 STARLINK-4150,1 53134U 22083C   22294.91667824  .00032009  00000-0  20206-2 0  9999,2 53134  53.2157 317.2287 0002535  29.3857  96.7776 15.08830907  1307,6917.908,95.438,541.5269999999998,538.019,0.0
53134.0,STARLINK-4150,PAYLOAD,2022-10-22 06:00:00,15.08855371,0.0002631,53.2157,315.7333,29.0966,108.6665,-0.0024783,-0.00039534,0.0,0 STARLINK-4150,1 53134U 22083C   22295.25001157 -.00039534  00000-0 -24783-2 0  9994,2 53134  53.2157 315.7333 0002631  29.0966 108.6665 15.08855371 15483,6917.833000000001,95.437,541.518,537.878,0.0
53134.0,STARLINK-4150,PAYLOAD,2022-10-22 14:00:01,15.0882978,0.0002763,53.2151,314.2374,27.075,122.2803,0.0015199,0.00023978,0.0,0 STARLINK-4150,1 53134U 22083C   22295.58334491  .00023978  00000-0  15199-2 0  9994,2 53134  53.2151 314.2374 0002763  27.0750 122.2803 15.08829780  1308,6917.9119999999975,95.438,541.688,537.865,0.0
53134.0,STARLINK-4150,PAYLOAD,2022-10-22 22:00:00,15.0883329,0.0002508,53.215,312.7393,29.6314,131.3271,0.0021728999999999,0.00034458,0.0,0 STARLINK-4150,1 53134U 22083C   22295.91667824  .00034458  00000-0  21729-2 0  9991,2 53134  53.2150 312.7393 0002508  29.6314 131.3271 15.08833290 15588,6917.901,95.438,541.501,538.031,0.0
53134.0,STARLINK-4150,PAYLOAD,2022-10-23 14:00:01,15.08841799,0.000272,53.2145,309.7479,27.2469,156.9186,0.0010009,0.00015678,0.0,0 STARLINK-4150,1 53134U 22083C   22296.58334491  .00015678  00000-0  10009-2 0  9998,2 53134  53.2145 309.7479 0002720  27.2469 156.9186 15.08841799 15686,6917.875,95.437,541.622,537.8580000000002,0.0
53134.0,STARLINK-4150,PAYLOAD,2022-10-23 22:00:00,15.08844476,0.0002467,53.2143,308.2498,29.3535,166.4187,-0.00036196,-6.045e-05,0.0,0 STARLINK-4150,1 53134U 22083C   22296.91667824 -.00006045  00000-0 -36196-3 0  9990,2 53134  53.2143 308.2498 0002467  29.3535 166.4187 15.08844476  1300,6917.8669999999975,95.437,541.438,538.025,0.0
53134.0,STARLINK-4150,PAYLOAD,2022-10-24 06:00:00,15.08833792,0.0002573,53.2143,306.7546,26.9043,180.4702,-0.002909,-0.00046283,0.0,0 STARLINK-4150,1 53134U 22083C   22297.25001157 -.00046283  00000-0 -29090-2 0  9991,2 53134  53.2143 306.7546 0002573  26.9043 180.4702 15.08833792 15787,6917.899,95.438,541.544,537.984,0.0
53134.0,STARLINK-4150,PAYLOAD,2022-10-24 14:00:01,15.08815601,0.0002663999999999,53.2139,305.2582,25.1493,193.7905,0.00020964,3.048e-05,0.0,0 STARLINK-4150,1 53134U 22083C   22297.58334491  .00003048  00000-0  20964-3 0  9999,2 53134  53.2139 305.2582 0002664  25.1493 193.7905 15.08815601  1301,6917.955,95.439,541.663,537.977,0.0
53134.0,STARLINK-4150,PAYLOAD,2022-10-24 22:00:00,15.0879869,0.0002487,53.2139,303.7601,28.5471,201.9657,0.0030004,0.00047734,0.0,0 STARLINK-4150,1 53134U 22083C   22297.91667824  .00047734  00000-0  30004-2 0  9990,2 53134  53.2139 303.7601 0002487  28.5471 201.9657 15.08798690 15884,6918.007,95.44,541.592,538.151,0.0
53134.0,STARLINK-4150,PAYLOAD,2022-10-25 14:00:01,15.08841806,0.0002753999999999,53.2139,300.7685,27.3251,226.3297,-0.0005344,-8.784e-05,0.0,0 STARLINK-4150,1 53134U 22083C   22298.58334491 -.00008784  00000-0 -53440-3 0  9999,2 53134  53.2139 300.7685 0002754  27.3251 226.3297 15.08841806 15983,6917.875,95.437,541.645,537.835,0.0
53134.0,STARLINK-4150,PAYLOAD,2022-10-25 22:00:01,15.08821393,0.0002606,53.2139,299.2702,31.1162,234.2025,0.0030747,0.00048963,0.0,0 STARLINK-4150,1 53134U 22083C   22298.91668981  .00048963  00000-0  30747-2 0  9995,2 53134  53.2139 299.2702 0002606  31.1162 234.2025 15.08821393  1302,6917.937,95.439,541.605,537.999,0.0
53134.0,STARLINK-4150,PAYLOAD,2022-10-26 14:00:01,15.08862287,0.0002824,53.2142,296.2786,28.2487,260.2067,-0.0027805,-0.00044299,0.0,0 STARLINK-4150,1 53134U 22083C   22299.58334491 -.00044299  00000-0 -27805-2 0  9996,2 53134  53.2142 296.2786 0002824  28.2487 260.2067 15.08862287  1306,6917.812,95.436,541.631,537.724,0.0
53134.0,STARLINK-4150,PAYLOAD,2022-10-26 22:00:00,15.08817955,0.0002663999999999,53.2145,294.7804,31.4788,268.5844,0.003064,0.00048786,0.0,0 STARLINK-4150,1 53134U 22083C   22299.91667824  .00048786  00000-0  30640-2 0  9996,2 53134  53.2145 294.7804 0002664  31.4788 268.5844 15.08817955  1301,6917.948,95.439,541.656,537.97,0.0
53134.0,STARLINK-4150,PAYLOAD,2022-10-27 06:00:00,15.08862034,0.0002852,53.2148,293.2855,30.5022,281.1561,-0.001749,-0.00028035,0.0,0 STARLINK-4150,1 53134U 22083C   22300.25001157 -.00028035  00000-0 -17490-2 0  9992,2 53134  53.2148 293.2855 0002852  30.5022 281.1561 15.08862034 16237,6917.813,95.436,541.651,537.705,0.0
53134.0,STARLINK-4150,PAYLOAD,2022-10-27 14:00:01,15.0884372,0.0002842999999999,53.2149,291.7887,27.504,295.8162,-0.0018977,-0.00030369,0.0,0 STARLINK-4150,1 53134U 22083C   22300.58335648 -.00030369  00000-0 -18977-2 0  9997,2 53134  53.2149 291.7887 0002843  27.5040 295.8162 15.08843720  1304,6917.869000000002,95.437,541.701,537.7669999999998,0.0
53134.0,STARLINK-4150,PAYLOAD,2022-10-27 22:00:00,15.08813287,0.0002683,53.2153,290.2909,31.246,303.6022,0.003237,0.0005157,0.0,0 STARLINK-4150,1 53134U 22083C   22300.91667824  .00051570  00000-0  32370-2 0  9996,2 53134  53.2153 290.2909 0002683  31.2460 303.6022 15.08813287  1306,6917.962,95.439,541.683,537.971,0.0
53134.0,STARLINK-4150,PAYLOAD,2022-10-28 06:00:00,15.08848295,0.000289,53.2154,288.7961,30.2426,316.1956,1.9028e-05,1.4e-07,0.0,0 STARLINK-4150,1 53134U 22083C   22301.25001157  .00000014  00000-0  19028-4 0  9999,2 53134  53.2154 288.7961 0002890  30.2426 316.1956 15.08848295 16384,6917.855,95.437,541.719,537.721,0.0
53134.0,STARLINK-4150,PAYLOAD,2022-10-28 14:00:01,15.08884377,0.0002839999999999,53.2154,287.2992,28.7172,329.3831,-0.0043361999999999,-0.0006873,0.0,0 STARLINK-4150,1 53134U 22083C   22301.58335648 -.00068730  00000-0 -43362-2 0  9997,2 53134  53.2154 287.2992 0002840  28.7172 329.3831 15.08884377  1302,6917.745,95.435,541.5740000000002,537.645,0.0
53134.0,STARLINK-4150,PAYLOAD,2022-10-28 22:00:01,15.08838589,0.0002616,53.2157,285.8015,30.8951,338.8262,0.00063594,9.847e-05,0.0,0 STARLINK-4150,1 53134U 22083C   22301.91668981  .00009847  00000-0  63594-3 0  9995,2 53134  53.2157 285.8015 0002616  30.8951 338.8262 15.08838589  1302,6917.885,95.438,541.559,537.94,0.0
53134.0,STARLINK-4150,PAYLOAD,2022-10-29 12:00:00,15.08860055,0.0002774999999999,53.2153,283.1845,27.0745,272.8787,-0.0013973,-0.00022471,0.0,0 STARLINK-4150,1 53134U 22083C   22302.50001157 -.00022471  00000-0 -13973-2 0  9992,2 53134  53.2153 283.1845 0002775  27.0745 272.8787 15.08860055  1307,6917.819,95.436,541.604,537.764,0.0
53134.0,STARLINK-4150,PAYLOAD,2022-10-29 22:00:01,15.08801177,0.0002445,53.2156,281.3125,27.9558,16.5681,0.0024492,0.00038866,0.0,0 STARLINK-4150,1 53134U 22083C   22302.91668981  .00038866  00000-0  24492-2 0  9992,2 53134  53.2156 281.3125 0002445  27.9558  16.5681 15.08801177  1302,6917.999,95.44,541.556,538.173,0.0
53134.0,STARLINK-4150,PAYLOAD,2022-10-30 00:00:00,15.08817298,0.0002465,53.2158,280.9388,27.7974,109.5494,0.00094037,0.00014701,0.0,0 STARLINK-4150,1 53134U 22083C   22303.00001157  .00014701  00000-0  94037-3 0  9994,2 53134  53.2158 280.9388 0002465  27.7974 109.5494 15.08817298 16652,6917.95,95.439,541.52,538.11,0.0
53134.0,STARLINK-4150,PAYLOAD,2022-10-30 14:00:01,15.08859866,0.0002572,53.2151,278.3209,25.4902,42.1061,-0.0041372,-0.00065573,0.0,0 STARLINK-4150,1 53134U 22083C   22303.58334491 -.00065573  00000-0 -41372-2 0  9995,2 53134  53.2151 278.3209 0002572  25.4902  42.1061 15.08859866  1308,6917.82,95.436,541.464,537.905,0.0
53134.0,STARLINK-4150,PAYLOAD,2022-10-30 22:00:01,15.08825726,0.0002373,53.2151,276.8237,27.2496,51.9983,0.00058764,9.073e-05,0.0,0 STARLINK-4150,1 53134U 22083C   22303.91668981  .00009073  00000-0  58764-3 0  9991,2 53134  53.2151 276.8237 0002373  27.2496  51.9983 15.08825726  1308,6917.924,95.438,541.431,538.1469999999998,0.0
53134.0,STARLINK-4150,PAYLOAD,2022-10-31 14:00:01,15.08834253,0.0002489,53.2145,273.832,24.9006,77.4274,-0.00089338,-0.00014477,0.0,0 STARLINK-4150,1 53134U 22083C   22304.58334491 -.00014477  00000-0 -89338-3 0  9998,2 53134  53.2145 273.8320 0002489  24.9006  77.4274 15.08834253  1301,6917.898,95.438,541.485,538.0409999999998,0.0
53134.0,STARLINK-4150,PAYLOAD,2022-10-31 22:00:01,15.08831623,0.0002362,53.2145,272.3347,29.0289,84.94200000000002,0.0021495,0.0003408,0.0,0 STARLINK-4150,1 53134U 22083C   22304.91668981  .00034080  00000-0  21495-2 0  9998,2 53134  53.2145 272.3347 0002362  29.0289  84.9420 15.08831623  1307,6917.906,95.438,541.405,538.137,0.0
